OBJECT_NAME,OBJECT_ID,EPOCH,MEAN_MOTION,ECCENTRICITY,INCLINATION,RA_OF_ASC_NODE,ARG_OF_PERICENTER,MEAN_ANOMALY,EPHEMERIS_TYPE,CLASSIFICATION_TYPE,NORAD_CAT_ID,ELEMENT_SET_NO,REV_AT_EPOCH,BSTAR,MEAN_MOTION_DOT,MEAN_MOTION_DDOT
SHUNTIAN,2019-093H,2026-07-07T19:40:44.315904,14.95262545,.0011836,97.8011,276.8771,4.2712,355.8608,0,U,44886,999,35526,.14249E-3,.1512E-4,0
ELEKTRO-L 3,2019-095A,2026-07-07T20:57:06.445728,1.00271919,.0001484,0.3068,82.1302,15.1273,218.8473,0,U,44903,999,2391,0,-.82E-6,0
GONETS-M 14,2019-096A,2026-07-07T21:32:01.007232,12.42870379,.0014277,82.5221,71.8005,105.0019,255.2642,0,U,44905,999,29625,-.4521E-3,-.53E-6,0
GONETS-M 15,2019-096B,2026-07-07T20:18:24.808608,12.42871755,.0015798,82.5241,72.2970,127.0942,233.1584,0,U,44906,999,29621,-.65266E-3,-.8E-6,0
GONETS-M 16,2019-096C,2026-07-07T20:55:40.133856,12.42892081,.0010639,82.5187,71.2234,167.0144,193.1212,0,U,44907,999,29620,-.48647E-3,-.57E-6,0
RS-44 & BREEZE-KM R/B,2019-096E,2026-07-07T17:21:17.421120,12.79748976,.0218593,82.5237,326.0585,96.3767,266.2275,0,U,44909,999,30497,.23712E-4,.19E-6,0
JILIN-1 KUANFU 01,2020-003A,2026-07-07T18:02:10.197024,15.10840849,.0008654,97.5019,262.3061,224.5272,135.5263,0,U,45016,999,35843,.16233E-3,.2637E-4,0
XINGYUN-2 01,2020-028A,2026-07-07T20:35:56.439168,15.11896131,.0010478,97.4879,180.8502,126.1121,234.1081,0,U,45602,999,33796,.13964E-3,.2329E-4,0
XINGYUN-2 02,2020-028B,2026-07-07T20:10:28.739424,15.11617265,.0010294,97.5072,194.4696,191.4304,168.6694,0,U,45603,999,33795,.63164E-4,.101E-4,0
HAIYANG-1D,2020-036A,2026-07-07T19:59:57.379200,14.34179833,.0004052,98.4557,130.0643,85.0043,275.1604,0,U,45721,999,31793,-.13866E-4,-.82E-6,0
M2 PATHFINDER,2020-037E,2026-07-07T11:05:26.977920,15.04773632,.00132671,97.8158,19.9225,85.9111,274.3631,0,U,45727,999,32854,.13445734E-3,.1835E-4,0
GAOFEN DUOMO (GFDM),2020-042A,2026-07-07T20:54:53.334432,14.76909857,.0011313,97.7730,248.0047,13.9761,346.1760,0,U,45856,999,32406,.98817E-4,.646E-5,0
ZIYUAN 3-03 (ZY 3-03),2020-051A,2026-07-07T20:05:31.985664,15.21424727,.0002325,97.2821,255.8936,225.6524,134.4522,0,U,45939,999,33048,.90322E-4,.1961E-4,0
NEMO-HD,2020-061F,2026-07-07T20:35:32.293824,15.45029195,.0001206,97.1907,250.6064,78.8180,281.3205,0,U,46277,999,32517,.15619E-3,.7283E-4,0
NAPA-1,2020-061BA,2026-07-07T21:14:12.945984,15.71058387,.0002148,97.2444,263.7854,184.5695,175.5549,0,U,46320,999,32498,.49229E-3,.61948E-3,0
JILIN-1 GAOFEN 3E,2020-065D,2026-07-07T17:56:48.391584,15.66411592,.0011323,97.2219,241.8673,95.1070,265.1483,0,U,46457,999,32297,.51393E-3,.53606E-3,0
JILIN-1 GAOFEN 3F,2020-065E,2026-07-07T17:55:47.018208,15.63266205,.0012769,97.2177,239.0985,82.4948,277.7761,0,U,46458,999,32291,.48939E-3,.45058E-3,0
JILIN-1 GAOFEN 3G,2020-065F,2026-07-07T18:09:11.268288,15.75543537,.0004756,97.2233,246.2815,317.6491,42.4407,0,U,46459,999,32317,.58699E-3,.89763E-3,0
JILIN-1 GAOFEN 3H,2020-065G,2026-07-07T18:41:10.239072,15.71205557,.0005284,97.2183,242.4956,230.0644,130.0155,0,U,46460,999,32311,.5294E-3,.6712E-3,0
HAIYANG-2C,2020-066A,2026-07-07T09:47:55.886208,13.83376725,.00080285,65.9960,164.9376,237.4701,122.5592,0,U,46469,999,29229,-.1101703E-3,-.203E-5,0
HJ-2A,2020-067A,2026-07-07T20:01:24.695904,14.76542265,.0003525,97.8818,266.7185,177.3987,182.7242,0,U,46478,999,31130,.41424E-4,.239E-5,0
HJ-2B,2020-067B,2026-07-06T23:45:06.288768,14.76586054,.00016766,97.8883,266.9320,98.9609,261.1791,0,U,46479,999,31118,.1453385E-3,.965E-5,0
GONETS-M 17,2020-068A,2026-07-07T19:36:16.214976,12.42873951,.0022135,82.5009,334.6679,353.0494,7.0276,0,U,46486,999,26172,.58244E-3,.91E-6,0
GONETS-M 18,2020-068B,2026-07-07T20:39:50.544288,12.42874502,.0019376,82.4962,333.7503,349.5850,10.4825,0,U,46487,999,26171,.45129E-4,.16E-6,0
GONETS-M 19,2020-068C,2026-07-07T20:04:01.617312,12.42892626,.0013396,82.4987,334.2201,6.3249,353.7997,0,U,46488,999,26181,.16453E-3,.33E-6,0
DEKART,2020-068H,2026-07-07T20:05:05.719200,15.37832031,.0008426,97.8745,199.5919,198.8269,161.2664,0,U,46493,999,31894,.23108E-3,.8509E-4,0
NORBI,2020-068J,2026-07-07T21:28:47.341632,15.49384308,.0007576,97.8626,206.6975,166.6195,193.5257,0,U,46494,999,31941,.29742E-3,.16236E-3,0
