SHUNTIAN                
1 44886U 19093H   26188.81995736  .00001512  00000+0  14249-3 0  9996
2 44886  97.8011 276.8771 0011836   4.2712 355.8608 14.95262545355260
ELEKTRO-L 3             
1 44903U 19095A   26188.87299127 -.00000082  00000+0  00000+0 0  9993
2 44903   0.3068  82.1302 0001484  15.1273 218.8473  1.00271919 23919
GONETS-M 14             
1 44905U 19096A   26188.89723388 -.00000053  00000+0 -45210-3 0  9994
2 44905  82.5221  71.8005 0014277 105.0019 255.2642 12.42870379296255
GONETS-M 15             
1 44906U 19096B   26188.84612047 -.00000080  00000+0 -65266-3 0  9992
2 44906  82.5241  72.2970 0015798 127.0942 233.1584 12.42871755296217
GONETS-M 16             
1 44907U 19096C   26188.87199229 -.00000057  00000+0 -48647-3 0  9996
2 44907  82.5187  71.2234 0010639 167.0144 193.1212 12.42892081296203
RS-44 & BREEZE-KM R/B   
1 44909U 19096E   26188.72311830  .00000019  00000+0  23712-4 0  9999
2 44909  82.5237 326.0585 0218593  96.3767 266.2275 12.79748976304973
JILIN-1 KUANFU 01       
1 45016U 20003A   26188.75150691  .00002637  00000+0  16233-3 0  9995
2 45016  97.5019 262.3061 0008654 224.5272 135.5263 15.10840849358434
XINGYUN-2 01            
1 45602U 20028A   26188.85829212  .00002329  00000+0  13964-3 0  9992
2 45602  97.4879 180.8502 0010478 126.1121 234.1081 15.11896131337964
XINGYUN-2 02            
1 45603U 20028B   26188.84061041  .00001010  00000+0  63164-4 0  9994
2 45603  97.5072 194.4696 0010294 191.4304 168.6694 15.11617265337959
HAIYANG-1D              
1 45721U 20036A   26188.83330300 -.00000082  00000+0 -13866-4 0  9994
2 45721  98.4557 130.0643 0004052  85.0043 275.1604 14.34179833317938
M2 PATHFINDER           
1 45727U 20037E   26188.46211780  .00001835  00000+0  13446-3 0  9998
2 45727  97.8158  19.9225 0013267  85.9111 274.3631 15.04773632328543
GAOFEN DUOMO (GFDM)     
1 45856U 20042A   26188.87145063  .00000646  00000+0  98817-4 0  9997
2 45856  97.7730 248.0047 0011313  13.9761 346.1760 14.76909857324062
ZIYUAN 3-03 (ZY 3-03)   
1 45939U 20051A   26188.83717576  .00001961  00000+0  90322-4 0  9993
2 45939  97.2821 255.8936 0002325 225.6524 134.4522 15.21424727330481
NEMO-HD                 
1 46277U 20061F   26188.85801266  .00007283  00000+0  15619-3 0  9990
2 46277  97.1907 250.6064 0001206  78.8180 281.3205 15.45029195325175
NAPA-1                  
1 46320U 20061BA  26188.88487206  .00061948  00000+0  49229-3 0  9998
2 46320  97.2444 263.7854 0002148 184.5695 175.5549 15.71058387324982
JILIN-1 GAOFEN 3E       
1 46457U 20065D   26188.74778231  .00053606  00000+0  51393-3 0  9996
2 46457  97.2219 241.8673 0011323  95.1070 265.1483 15.66411592322973
JILIN-1 GAOFEN 3F       
1 46458U 20065E   26188.74707197  .00045058  00000+0  48939-3 0  9994
2 46458  97.2177 239.0985 0012769  82.4948 277.7761 15.63266205322918
JILIN-1 GAOFEN 3G       
1 46459U 20065F   26188.75638042  .00089763  00000+0  58699-3 0  9993
2 46459  97.2233 246.2815 0004756 317.6491  42.4407 15.75543537323179
JILIN-1 GAOFEN 3H       
1 46460U 20065G   26188.77859073  .00067120  00000+0  52940-3 0  9992
2 46460  97.2183 242.4956 0005284 230.0644 130.0155 15.71205557323115
HAIYANG-2C              
1 46469U 20066A   26188.40828572 -.00000203  00000+0 -11017-3 0  9993
2 46469  65.9960 164.9376 0008028 237.4701 122.5592 13.83376725292299
HJ-2A                   
1 46478U 20067A   26188.83431361  .00000239  00000+0  41424-4 0  9990
2 46478  97.8818 266.7185 0003525 177.3987 182.7242 14.76542265311300
HJ-2B                   
1 46479U 20067B   26187.98965612  .00000965  00000+0  14534-3 0  9994
2 46479  97.8883 266.9320 0001676  98.9609 261.1791 14.76586054311181
GONETS-M 17             
1 46486U 20068A   26188.81685434  .00000091  00000+0  58244-3 0  9993
2 46486  82.5009 334.6679 0022135 353.0494   7.0276 12.42873951261725
GONETS-M 18             
1 46487U 20068B   26188.86100167  .00000016  00000+0  45129-4 0  9990
2 46487  82.4962 333.7503 0019376 349.5850  10.4825 12.42874502261718
GONETS-M 19             
1 46488U 20068C   26188.83612983  .00000033  00000+0  16453-3 0  9998
2 46488  82.4987 334.2201 0013396   6.3249 353.7997 12.42892626261814
DEKART                  
1 46493U 20068H   26188.83687175  .00008509  00000+0  23108-3 0  9990
2 46493  97.8745 199.5919 0008426 198.8269 161.2664 15.37832031318948
NORBI                   
1 46494U 20068J   26188.89499238  .00016236  00000+0  29742-3 0  9994
2 46494  97.8626 206.6975 0007576 166.6195 193.5257 15.49384308319416
